[{"OBJECT_NAME":"STARLINK-30542","OBJECT_ID":"2023-156P","EPOCH":"2026-03-09T06:05:56.933088","MEAN_MOTION":15.30194254,"ECCENTRICITY":0.00011503,"INCLINATION":53.1597,"RA_OF_ASC_NODE":80.2535,"ARG_OF_PERICENTER":85.0081,"MEAN_ANOMALY":275.1051,"EPHEMERIS_TYPE":0,"CLASSIFICATION_TYPE":"U","NORAD_CAT_ID":58041,"ELEMENT_SET_NO":999,"REV_AT_EPOCH":13624,"BSTAR":3.178222e-6,"MEAN_MOTION_DOT":-2.65e-6,"MEAN_MOTION_DDOT":0},{"OBJECT_NAME":"USA 22","OBJECT_ID":"1987-043A","EPOCH":"2026-03-09T12:49:38.770464","MEAN_MOTION":14.09930808,"ECCENTRICITY":0.06945592,"INCLINATION":63.291,"RA_OF_ASC_NODE":125.356,"ARG_OF_PERICENTER":106.1549,"MEAN_ANOMALY":261.7059,"EPHEMERIS_TYPE":0,"CLASSIFICATION_TYPE":"U","NORAD_CAT_ID":17997,"ELEMENT_SET_NO":999,"REV_AT_EPOCH":9242,"BSTAR":0.00062215279,"MEAN_MOTION_DOT":0.00012639,"MEAN_MOTION_DDOT":0}]
